STARLINK-36868          
1 68120U 26044V   26087.12119815  .00263646  00000+0  17090-2 0  9999
2 68120  97.2840  48.2004 0001726 137.2721 222.8679 15.75263827  4383
STARLINK-36855          
1 68121U 26044W   26087.18401821  .00109967  00000+0  72757-3 0  9994
2 68121  97.2847  48.2683 0001273  98.0544 262.0866 15.75225197  4391
STARLINK-36366          
1 68122U 26044X   26087.18366455  .00163969  00000+0  10762-2 0  9997
2 68122  97.2845  48.2691 0001316  99.5888 260.5526 15.75254760  4398
STARLINK-36922          
1 68123U 26044Y   26087.18119384  .00155178  00000+0  10199-2 0  9992
2 68123  97.2844  48.2724 0001196 108.5687 251.5709 15.75247980  4398
STARLINK-36938          
1 68124U 26044Z   26087.16668981  .00021910  00000+0  14766-3 0  9994
2 68124  97.2842  48.3076 0001461 110.4993 287.4455 15.75146723  4372
STARLINK-36839          
1 68125U 26044AA  26087.18225074  .00128709  00000+0  84897-3 0  9995
2 68125  97.2843  48.2710 0001277 104.8769 255.2638 15.75241273  4395
ECHOSTAR 25             
1 68126U 26045A   26087.21156015  .00000039  00000+0  00000+0 0  9994
2 68126   0.0547 281.6809 0002344 106.5941 104.6051  1.00272152   180
ICOR SV                 
1 68127U 26046A   26087.20023671  .00440423  87892-4  68954-3 0  9996
2 68127 123.0769 290.0252 0105879 219.8204 139.5064 15.93485305  2542
FIREFLY ALPHA R/B       
1 68128U 26046B   26087.19673849  .00043282  00000+0  58584-3 0  9994
2 68128 123.0943 286.6904 0016066  17.2970 342.8635 15.57177884  2522
GUOWANG GROUP 20 OBJECT*
1 68129U 26047A   26086.33122156 -.00000106  00000+0  30515-4 0  9995
2 68129  50.0018 358.7253 0003228 358.1957   1.8932 13.95700641  2043
GUOWANG GROUP 20 OBJECT*
1 68130U 26047B   26085.75628566 -.00000072  00000+0  55036-4 0  9995
2 68130  50.0066   1.0171 0000428 307.3036  52.7826 13.96591410  1957
GUOWANG GROUP 20 OBJECT*
1 68131U 26047C   26085.82615450 -.00000111  00000+0  27090-4 0  9995
2 68131  49.9996   0.7054 0000048  49.5998 310.4907 13.96862690  1970
