CCSDS_OMM_VERS = 2.0
CREATION_DATE  = 
ORIGINATOR     = 

OBJECT_NAME    = STARLINK-36868
OBJECT_ID      = 2026-044V
CENTER_NAME    = EARTH
REF_FRAME      = TEME
TIME_SYSTEM    = UTC
MEAN_ELEMENT_THEORY = SGP/SGP4

EPOCH          = 2026-03-28T02:54:31.520160
MEAN_MOTION    = 15.75263827
ECCENTRICITY   = .00017269
INCLINATION    = 97.2840
RA_OF_ASC_NODE = 48.2004
ARG_OF_PERICENTER = 137.2721
MEAN_ANOMALY   = 222.8679

EPHEMERIS_TYPE = 0
CLASSIFICATION_TYPE = U
NORAD_CAT_ID   = 68120
ELEMENT_SET_NO = 999
REV_AT_EPOCH   = 438
BSTAR          = .17089866E-2
MEAN_MOTION_DOT = .263646E-2
MEAN_MOTION_DDOT = 0

CCSDS_OMM_VERS = 2.0
CREATION_DATE  = 
ORIGINATOR     = 

OBJECT_NAME    = STARLINK-36855
OBJECT_ID      = 2026-044W
CENTER_NAME    = EARTH
REF_FRAME      = TEME
TIME_SYSTEM    = UTC
MEAN_ELEMENT_THEORY = SGP/SGP4

EPOCH          = 2026-03-28T04:24:59.173344
MEAN_MOTION    = 15.75225197
ECCENTRICITY   = .00012733
INCLINATION    = 97.2847
RA_OF_ASC_NODE = 48.2683
ARG_OF_PERICENTER = 98.0544
MEAN_ANOMALY   = 262.0866

EPHEMERIS_TYPE = 0
CLASSIFICATION_TYPE = U
NORAD_CAT_ID   = 68121
ELEMENT_SET_NO = 999
REV_AT_EPOCH   = 439
BSTAR          = .72757371E-3
MEAN_MOTION_DOT = .109967E-2
MEAN_MOTION_DDOT = 0

CCSDS_OMM_VERS = 2.0
CREATION_DATE  = 
ORIGINATOR     = 

OBJECT_NAME    = STARLINK-36366
OBJECT_ID      = 2026-044X
CENTER_NAME    = EARTH
REF_FRAME      = TEME
TIME_SYSTEM    = UTC
MEAN_ELEMENT_THEORY = SGP/SGP4

EPOCH          = 2026-03-28T04:24:28.617120
MEAN_MOTION    = 15.75254760
ECCENTRICITY   = .00013161
INCLINATION    = 97.2845
RA_OF_ASC_NODE = 48.2691
ARG_OF_PERICENTER = 99.5888
MEAN_ANOMALY   = 260.5526

EPHEMERIS_TYPE = 0
CLASSIFICATION_TYPE = U
NORAD_CAT_ID   = 68122
ELEMENT_SET_NO = 999
REV_AT_EPOCH   = 439
BSTAR          = .10761983E-2
MEAN_MOTION_DOT = .163969E-2
MEAN_MOTION_DDOT = 0

CCSDS_OMM_VERS = 2.0
CREATION_DATE  = 
ORIGINATOR     = 

OBJECT_NAME    = STARLINK-36922
OBJECT_ID      = 2026-044Y
CENTER_NAME    = EARTH
REF_FRAME      = TEME
TIME_SYSTEM    = UTC
MEAN_ELEMENT_THEORY = SGP/SGP4

EPOCH          = 2026-03-28T04:20:55.147776
MEAN_MOTION    = 15.75247980
ECCENTRICITY   = .00011969
INCLINATION    = 97.2844
RA_OF_ASC_NODE = 48.2724
ARG_OF_PERICENTER = 108.5687
MEAN_ANOMALY   = 251.5709

EPHEMERIS_TYPE = 0
CLASSIFICATION_TYPE = U
NORAD_CAT_ID   = 68123
ELEMENT_SET_NO = 999
REV_AT_EPOCH   = 439
BSTAR          = .10199024E-2
MEAN_MOTION_DOT = .155178E-2
MEAN_MOTION_DDOT = 0

CCSDS_OMM_VERS = 2.0
CREATION_DATE  = 
ORIGINATOR     = 

OBJECT_NAME    = STARLINK-36938
OBJECT_ID      = 2026-044Z
CENTER_NAME    = EARTH
REF_FRAME      = TEME
TIME_SYSTEM    = UTC
MEAN_ELEMENT_THEORY = SGP/SGP4

EPOCH          = 2026-03-28T04:00:01.999584
MEAN_MOTION    = 15.75146723
ECCENTRICITY   = .00014612
INCLINATION    = 97.2842
RA_OF_ASC_NODE = 48.3076
ARG_OF_PERICENTER = 110.4993
MEAN_ANOMALY   = 287.4455

EPHEMERIS_TYPE = 0
CLASSIFICATION_TYPE = U
NORAD_CAT_ID   = 68124
ELEMENT_SET_NO = 999
REV_AT_EPOCH   = 437
BSTAR          = .14765785E-3
MEAN_MOTION_DOT = .2191E-3
MEAN_MOTION_DDOT = 0

CCSDS_OMM_VERS = 2.0
CREATION_DATE  = 
ORIGINATOR     = 

OBJECT_NAME    = STARLINK-36839
OBJECT_ID      = 2026-044AA
CENTER_NAME    = EARTH
REF_FRAME      = TEME
TIME_SYSTEM    = UTC
MEAN_ELEMENT_THEORY = SGP/SGP4

EPOCH          = 2026-03-28T04:22:26.463936
MEAN_MOTION    = 15.75241273
ECCENTRICITY   = .00012778
INCLINATION    = 97.2843
RA_OF_ASC_NODE = 48.2710
ARG_OF_PERICENTER = 104.8769
MEAN_ANOMALY   = 255.2638

EPHEMERIS_TYPE = 0
CLASSIFICATION_TYPE = U
NORAD_CAT_ID   = 68125
ELEMENT_SET_NO = 999
REV_AT_EPOCH   = 439
BSTAR          = .84896623E-3
MEAN_MOTION_DOT = .128709E-2
MEAN_MOTION_DDOT = 0

CCSDS_OMM_VERS = 2.0
CREATION_DATE  = 
ORIGINATOR     = 

OBJECT_NAME    = ECHOSTAR 25
OBJECT_ID      = 2026-045A
CENTER_NAME    = EARTH
REF_FRAME      = TEME
TIME_SYSTEM    = UTC
MEAN_ELEMENT_THEORY = SGP/SGP4

EPOCH          = 2026-03-28T05:04:38.796960
MEAN_MOTION    = 1.00272152
ECCENTRICITY   = .00023448
INCLINATION    = 0.0547
RA_OF_ASC_NODE = 281.6809
ARG_OF_PERICENTER = 106.5941
MEAN_ANOMALY   = 104.6051

EPHEMERIS_TYPE = 0
CLASSIFICATION_TYPE = U
NORAD_CAT_ID   = 68126
ELEMENT_SET_NO = 999
REV_AT_EPOCH   = 18
BSTAR          = 0
MEAN_MOTION_DOT = .39E-6
MEAN_MOTION_DDOT = 0

CCSDS_OMM_VERS = 2.0
CREATION_DATE  = 
ORIGINATOR     = 

OBJECT_NAME    = ICOR SV
OBJECT_ID      = 2026-046A
CENTER_NAME    = EARTH
REF_FRAME      = TEME
TIME_SYSTEM    = UTC
MEAN_ELEMENT_THEORY = SGP/SGP4

EPOCH          = 2026-03-28T04:48:20.451744
MEAN_MOTION    = 15.93485305
ECCENTRICITY   = .01058795
INCLINATION    = 123.0769
RA_OF_ASC_NODE = 290.0252
ARG_OF_PERICENTER = 219.8204
MEAN_ANOMALY   = 139.5064

EPHEMERIS_TYPE = 0
CLASSIFICATION_TYPE = U
NORAD_CAT_ID   = 68127
ELEMENT_SET_NO = 999
REV_AT_EPOCH   = 254
BSTAR          = .68953653E-3
MEAN_MOTION_DOT = .440423E-2
MEAN_MOTION_DDOT = .87892388E-4

CCSDS_OMM_VERS = 2.0
CREATION_DATE  = 
ORIGINATOR     = 

OBJECT_NAME    = FIREFLY ALPHA R/B
OBJECT_ID      = 2026-046B
CENTER_NAME    = EARTH
REF_FRAME      = TEME
TIME_SYSTEM    = UTC
MEAN_ELEMENT_THEORY = SGP/SGP4

EPOCH          = 2026-03-28T04:43:18.205536
MEAN_MOTION    = 15.57177884
ECCENTRICITY   = .00160667
INCLINATION    = 123.0943
RA_OF_ASC_NODE = 286.6904
ARG_OF_PERICENTER = 17.2970
MEAN_ANOMALY   = 342.8635

EPHEMERIS_TYPE = 0
CLASSIFICATION_TYPE = U
NORAD_CAT_ID   = 68128
ELEMENT_SET_NO = 999
REV_AT_EPOCH   = 252
BSTAR          = .58583794E-3
MEAN_MOTION_DOT = .43282E-3
MEAN_MOTION_DDOT = 0

CCSDS_OMM_VERS = 2.0
CREATION_DATE  = 
ORIGINATOR     = 

OBJECT_NAME    = GUOWANG GROUP 20 OBJECT A
OBJECT_ID      = 2026-047A
CENTER_NAME    = EARTH
REF_FRAME      = TEME
TIME_SYSTEM    = UTC
MEAN_ELEMENT_THEORY = SGP/SGP4

EPOCH          = 2026-03-27T07:56:57.542784
MEAN_MOTION    = 13.95700641
ECCENTRICITY   = .0003228
INCLINATION    = 50.0018
RA_OF_ASC_NODE = 358.7253
ARG_OF_PERICENTER = 358.1957
MEAN_ANOMALY   = 1.8932

EPHEMERIS_TYPE = 0
CLASSIFICATION_TYPE = U
NORAD_CAT_ID   = 68129
ELEMENT_SET_NO = 999
REV_AT_EPOCH   = 204
BSTAR          = .30515E-4
MEAN_MOTION_DOT = -.106E-5
MEAN_MOTION_DDOT = 0

CCSDS_OMM_VERS = 2.0
CREATION_DATE  = 
ORIGINATOR     = 

OBJECT_NAME    = GUOWANG GROUP 20 OBJECT B
OBJECT_ID      = 2026-047B
CENTER_NAME    = EARTH
REF_FRAME      = TEME
TIME_SYSTEM    = UTC
MEAN_ELEMENT_THEORY = SGP/SGP4

EPOCH          = 2026-03-26T18:09:03.081024
MEAN_MOTION    = 13.96591410
ECCENTRICITY   = .0000428
INCLINATION    = 50.0066
RA_OF_ASC_NODE = 1.0171
ARG_OF_PERICENTER = 307.3036
MEAN_ANOMALY   = 52.7826

EPHEMERIS_TYPE = 0
CLASSIFICATION_TYPE = U
NORAD_CAT_ID   = 68130
ELEMENT_SET_NO = 999
REV_AT_EPOCH   = 195
BSTAR          = .55036E-4
MEAN_MOTION_DOT = -.72E-6
MEAN_MOTION_DDOT = 0

CCSDS_OMM_VERS = 2.0
CREATION_DATE  = 
ORIGINATOR     = 

OBJECT_NAME    = GUOWANG GROUP 20 OBJECT C
OBJECT_ID      = 2026-047C
CENTER_NAME    = EARTH
REF_FRAME      = TEME
TIME_SYSTEM    = UTC
MEAN_ELEMENT_THEORY = SGP/SGP4

EPOCH          = 2026-03-26T19:49:39.748800
MEAN_MOTION    = 13.96862690
ECCENTRICITY   = .0000048
INCLINATION    = 49.9996
RA_OF_ASC_NODE = 0.7054
ARG_OF_PERICENTER = 49.5998
MEAN_ANOMALY   = 310.4907

EPHEMERIS_TYPE = 0
CLASSIFICATION_TYPE = U
NORAD_CAT_ID   = 68131
ELEMENT_SET_NO = 999
REV_AT_EPOCH   = 197
BSTAR          = .2709E-4
MEAN_MOTION_DOT = -.111E-5
MEAN_MOTION_DDOT = 0

